GLOBALSTAR M040         
1 25622U 99004B   24273.59504837 -.00000060  00000+0  24725-3 0  9997
2 25622  51.9897 130.7047 0001022 124.9025 260.2121 12.61984647182359
GLOBALSTAR M036         
1 25623U 99004C   24273.60575072 -.00000203  00000+0 -17567-2 0  9994
2 25623  51.9956 207.1460 0010357 274.8429 256.9676 11.86579430148049
GLOBALSTAR M038         
1 25624U 99004D   24273.52540606 -.00000044  00000+0  42005-3 0  9999
2 25624  51.9954 102.2369 0001173 204.9891 182.2266 12.32508967170235
GLOBALSTAR M022         
1 25649U 99012A   24273.30777793 -.00000055  00000+0  38555-3 0  9997
2 25649  52.0032 280.0877 0002501  18.6159 354.8141 12.02488538144994
GLOBALSTAR M041         
1 25650U 99012B   24273.36179881 -.00000126  00000+0 -52943-3 0  9996
2 25650  52.0007 153.4379 0002453 153.5919 206.5043 11.96658963147054
